{"type": "FeatureCollection", "features": [ {"type": "Feature", "properties": {"norad_id": 66442, "name": "STARLINK-34724", "group": "last-30-days", "lat": 42.233984318292364, "lon": 132.79386685462012, "alt_km": 438.33930222569234, "timestamp": "2025-12-11T07:02:22.476280+00:00", "meta": {"OBJECT_NAME": "STARLINK-34724", "OBJECT_ID": "2025-259W", "EPOCH": "2025-12-10T22:00:03.000096", "MEAN_MOTION": 15.40658402, "ECCENTRICITY": 0.0001446, "INCLINATION": 43.0005, "RA_OF_ASC_NODE": 58.0083, "ARG_OF_PERICENTER": 277.432, "MEAN_ANOMALY": 231.6213, "EPHEMERIS_TYPE": 0, "CLASSIFICATION_TYPE": "U", "NORAD_CAT_ID": 66442, "ELEMENT_SET_NO": 999, "REV_AT_EPOCH": 598, "BSTAR": 0.00048358446, "MEAN_MOTION_DOT": 0.00019922, "MEAN_MOTION_DDOT": 0}, "tle": {"line1": "1 66442U 25259W   25344.91670139  .00019922  00000+0  48358-3 0  9992", "line2": "2 66442  43.0005  58.0083 0001446 277.4320 231.6213 15.40658402  5985"}}, "geometry": {"type": "Point", "coordinates": [132.79386685462012, 42.233984318292364]}}, {"type": "Feature", "properties": {"norad_id": 66443, "name": "STARLINK-35219", "group": "last-30-days", "lat": 42.91214048948579, "lon": 149.77608227803222, "alt_km": 439.01986113006024, "timestamp": "2025-12-11T07:02:22.476291+00:00", "meta": {"OBJECT_NAME": "STARLINK-35219", "OBJECT_ID": "2025-259X", "EPOCH": "2025-12-10T22:00:03.000096", "MEAN_MOTION": 15.42153125, "ECCENTRICITY": 0.00011319, "INCLINATION": 43.001, "RA_OF_ASC_NODE": 57.9803, "ARG_OF_PERICENTER": 289.3877, "MEAN_ANOMALY": 231.3221, "EPHEMERIS_TYPE": 0, "CLASSIFICATION_TYPE": "U", "NORAD_CAT_ID": 66443, "ELEMENT_SET_NO": 999, "REV_AT_EPOCH": 588, "BSTAR": -0.053283806, "MEAN_MOTION_DOT": -0.02072208, "MEAN_MOTION_DDOT": 0}, "tle": {"line1": "1 66443U 25259X   25344.91670139 -.02072208  00000+0 -53284-1 0  9995", "line2": "2 66443  43.0010  57.9803 0001131 289.3877 231.3221 15.42153125  5889"}}, "geometry": {"type": "Point", "coordinates": [149.77608227803222, 42.91214048948579]}}, {"type": "Feature", "properties": {"norad_id": 66444, "name": "STARLINK-35360", "group": "last-30-days", "lat": 34.087750179513044, "lon": -170.8383861140602, "alt_km": 428.7969976023742, "timestamp": "2025-12-11T07:02:22.476302+00:00", "meta": {"OBJECT_NAME": "STARLINK-35360", "OBJECT_ID": "2025-259Y", "EPOCH": "2025-12-10T22:00:03.000096", "MEAN_MOTION": 15.46135026, "ECCENTRICITY": 0.00012945, "INCLINATION": 43.0013, "RA_OF_ASC_NODE": 57.9159, "ARG_OF_PERICENTER": 274.8077, "MEAN_ANOMALY": 272.2707, "EPHEMERIS_TYPE": 0, "CLASSIFICATION_TYPE": "U", "NORAD_CAT_ID": 66444, "ELEMENT_SET_NO": 999, "REV_AT_EPOCH": 598, "BSTAR": -0.046937639, "MEAN_MOTION_DOT": -0.02090569, "MEAN_MOTION_DDOT": 0}, "tle": {"line1": "1 66444U 25259Y   25344.91670139 -.02090569  00000+0 -46938-1 0  9994", "line2": "2 66444  43.0013  57.9159 0001294 274.8077 272.2707 15.46135026  5986"}}, "geometry": {"type": "Point", "coordinates": [-170.8383861140602, 34.087750179513044]}}, {"type": "Feature", "properties": {"norad_id": 66445, "name": "STARLINK-34698", "group": "last-30-days", "lat": 41.20393337777247, "lon": 165.79894611032879, "alt_km": 435.37946745375484, "timestamp": "2025-12-11T07:02:22.476322+00:00", "meta": {"OBJECT_NAME": "STARLINK-34698", "OBJECT_ID": "2025-259Z", "EPOCH": "2025-12-10T22:00:03.000096", "MEAN_MOTION": 15.43369232, "ECCENTRICITY": 0.0001722, "INCLINATION": 43.0004, "RA_OF_ASC_NODE": 57.9558, "ARG_OF_PERICENTER": 281.3187, "MEAN_ANOMALY": 249.5728, "EPHEMERIS_TYPE": 0, "CLASSIFICATION_TYPE": "U", "NORAD_CAT_ID": 66445, "ELEMENT_SET_NO": 999, "REV_AT_EPOCH": 587, "BSTAR": -0.043361241, "MEAN_MOTION_DOT": -0.01788167, "MEAN_MOTION_DDOT": 0}, "tle": {"line1": "1 66445U 25259Z   25344.91670139 -.01788167  00000+0 -43361-1 0  9999", "line2": "2 66445  43.0004  57.9558 0001722 281.3187 249.5728 15.43369232  5874"}}, "geometry": {"type": "Point", "coordinates": [165.79894611032879, 41.20393337777247]}}, {"type": "Feature", "properties": {"norad_id": 66446, "name": "STARLINK-34986", "group": "last-30-days", "lat": 37.97703545140205, "lon": 178.85336317776887, "alt_km": 432.0964191781104, "timestamp": "2025-12-11T07:02:22.476333+00:00", "meta": {"OBJECT_NAME": "STARLINK-34986", "OBJECT_ID": "2025-259AA", "EPOCH": "2025-12-10T22:00:03.000096", "MEAN_MOTION": 15.4480156, "ECCENTRICITY": 0.00011717, "INCLINATION": 43.0007, "RA_OF_ASC_NODE": 57.9337, "ARG_OF_PERICENTER": 277.7495, "MEAN_ANOMALY": 261.9404, "EPHEMERIS_TYPE": 0, "CLASSIFICATION_TYPE": "U", "NORAD_CAT_ID": 66446, "ELEMENT_SET_NO": 999, "REV_AT_EPOCH": 598, "BSTAR": -0.049094415, "MEAN_MOTION_DOT": -0.0208812, "MEAN_MOTION_DDOT": 0}, "tle": {"line1": "1 66446U 25259AA  25344.91670139 -.02088120  00000+0 -49094-1 0  9992", "line2": "2 66446  43.0007  57.9337 0001171 277.7495 261.9404 15.44801560  5989"}}, "geometry": {"type": "Point", "coordinates": [178.85336317776887, 37.97703545140205]}}, {"type": "Feature", "properties": {"norad_id": 66447, "name": "STARLINK-34851", "group": "last-30-days", "lat": 24.48102808459237, "lon": -153.56620850967195, "alt_km": 411.05331661358105, "timestamp": "2025-12-11T07:02:22.476344+00:00", "meta": {"OBJECT_NAME": "STARLINK-34851", "OBJECT_ID": "2025-259AB", "EPOCH": "2025-12-10T05:41:44.121408", "MEAN_MOTION": 15.50651186, "ECCENTRICITY": 0.0001321, "INCLINATION": 42.9984, "RA_OF_ASC_NODE": 61.8661, "ARG_OF_PERICENTER": 284.8329, "MEAN_ANOMALY": 75.2384, "EPHEMERIS_TYPE": 0, "CLASSIFICATION_TYPE": "U", "NORAD_CAT_ID": 66447, "ELEMENT_SET_NO": 999, "REV_AT_EPOCH": 567, "BSTAR": 0.0017574, "MEAN_MOTION_DOT": 0.00104412, "MEAN_MOTION_DDOT": 0}, "tle": {"line1": "1 66447U 25259AB  25344.23731622  .00104412  00000+0  17574-2 0  9991", "line2": "2 66447  42.9984  61.8661 0001321 284.8329  75.2384 15.50651186  5671"}}, "geometry": {"type": "Point", "coordinates": [-153.56620850967195, 24.48102808459237]}}, {"type": "Feature", "properties": {"norad_id": 66448, "name": "STARLINK-35355", "group": "last-30-days", "lat": 23.604585620840496, "lon": -152.2793824307346, "alt_km": 412.7277963599745, "timestamp": "2025-12-11T07:02:22.476355+00:00", "meta": {"OBJECT_NAME": "STARLINK-35355", "OBJECT_ID": "2025-259AC", "EPOCH": "2025-12-10T13:25:01.560576", "MEAN_MOTION": 15.5060967, "ECCENTRICITY": 0.0004361, "INCLINATION": 43.0057, "RA_OF_ASC_NODE": 59.9766, "ARG_OF_PERICENTER": 272.1256, "MEAN_ANOMALY": 87.9104, "EPHEMERIS_TYPE": 0, "CLASSIFICATION_TYPE": "U", "NORAD_CAT_ID": 66448, "ELEMENT_SET_NO": 999, "REV_AT_EPOCH": 583, "BSTAR": 0.0019215, "MEAN_MOTION_DOT": 0.00114197, "MEAN_MOTION_DDOT": 0}, "tle": {"line1": "1 66448U 25259AC  25344.55904584  .00114197  00000+0  19215-2 0  9991", "line2": "2 66448  43.0057  59.9766 0004361 272.1256  87.9104 15.50609670  5834"}}, "geometry": {"type": "Point", "coordinates": [-152.2793824307346, 23.604585620840496]}}, {"type": "Feature", "properties": {"norad_id": 66449, "name": "STARLINK-34720", "group": "last-30-days", "lat": 22.23919997324107, "lon": -150.35025608226545, "alt_km": 411.49053198440924, "timestamp": "2025-12-11T07:02:22.476366+00:00", "meta": {"OBJECT_NAME": "STARLINK-34720", "OBJECT_ID": "2025-259AD", "EPOCH": "2025-12-10T11:51:46.579968", "MEAN_MOTION": 15.50681611, "ECCENTRICITY": 0.00025267, "INCLINATION": 43.0013, "RA_OF_ASC_NODE": 60.3517, "ARG_OF_PERICENTER": 262.4662, "MEAN_ANOMALY": 97.5912, "EPHEMERIS_TYPE": 0, "CLASSIFICATION_TYPE": "U", "NORAD_CAT_ID": 66449, "ELEMENT_SET_NO": 999, "REV_AT_EPOCH": 571, "BSTAR": 0.0022240918, "MEAN_MOTION_DOT": 0.00132863, "MEAN_MOTION_DDOT": 0}, "tle": {"line1": "1 66449U 25259AD  25344.49428912  .00132863  00000+0  22241-2 0  9994", "line2": "2 66449  43.0013  60.3517 0002526 262.4662  97.5912 15.50681611  5717"}}, "geometry": {"type": "Point", "coordinates": [-150.35025608226545, 22.23919997324107]}}, {"type": "Feature", "properties": {"norad_id": 66450, "name": "STARLINK-35334", "group": "last-30-days", "lat": 21.209352592385265, "lon": -148.93678174929536, "alt_km": 411.7872503490589, "timestamp": "2025-12-11T07:02:22.476377+00:00", "meta": {"OBJECT_NAME": "STARLINK-35334", "OBJECT_ID": "2025-259AE", "EPOCH": "2025-12-10T13:24:02.373120", "MEAN_MOTION": 15.50613633, "ECCENTRICITY": 0.0002029, "INCLINATION": 43.003, "RA_OF_ASC_NODE": 59.9713, "ARG_OF_PERICENTER": 266.842, "MEAN_ANOMALY": 93.2208, "EPHEMERIS_TYPE": 0, "CLASSIFICATION_TYPE": "U", "NORAD_CAT_ID": 66450, "ELEMENT_SET_NO": 999, "REV_AT_EPOCH": 583, "BSTAR": 0.0021725, "MEAN_MOTION_DOT": 0.00129395, "MEAN_MOTION_DDOT": 0}, "tle": {"line1": "1 66450U 25259AE  25344.55836080  .00129395  00000+0  21725-2 0  9994", "line2": "2 66450  43.0030  59.9713 0002029 266.8420  93.2208 15.50613633  5831"}}, "geometry": {"type": "Point", "coordinates": [-148.93678174929536, 21.209352592385265]}}, {"type": "Feature", "properties": {"norad_id": 66454, "name": "VIASAT-3 F2", "group": "last-30-days", "lat": 4.363410266339453, "lon": -14.609378963335034, "alt_km": 22181.288827503653, "timestamp": "2025-12-11T07:02:22.476391+00:00", "meta": {"OBJECT_NAME": "VIASAT-3 F2", "OBJECT_ID": "2025-261A", "EPOCH": "2025-12-08T12:11:15.383616", "MEAN_MOTION": 2.19142646, "ECCENTRICITY": 0.22792154, "INCLINATION": 5.457, "RA_OF_ASC_NODE": 292.6501, "ARG_OF_PERICENTER": 190.5469, "MEAN_ANOMALY": 204.5187, "EPHEMERIS_TYPE": 0, "CLASSIFICATION_TYPE": "U", "NORAD_CAT_ID": 66454, "ELEMENT_SET_NO": 999, "REV_AT_EPOCH": 55, "BSTAR": 0, "MEAN_MOTION_DOT": -8.1e-07, "MEAN_MOTION_DDOT": 0}, "tle": {"line1": "1 66454U 25261A   25342.50781694 -.00000081  00000+0  00000+0 0  9995", "line2": "2 66454   5.4570 292.6501 2279215 190.5469 204.5187  2.19142646   557"}}, "geometry": {"type": "Point", "coordinates": [-14.609378963335034, 4.363410266339453]}}]}